X,Y,name,lat,lon,descr,length (m),route_names,walking_distances,shortest_walking_distance
-106.4006558,39.5648713,Two Elk Tr,39.564871300000000,-106.400655799999996,start,7381.684377463235251,"Leadville(ECO Transit),Minturn(ECO Transit),Minturn(ECO Transit),Leadville(ECO Transit),Minturn(ECO Transit),","4.572,4.572,6.083,3.576,3.576,",3.576
-106.0983287,39.5780789,,39.578078900000001,-106.098328699999996,start,237.316955810359218,"CDOT West Line (DAILY)(Bustang),","1.841,",1.841
-106.0961944,39.5790988,,39.579098799999997,-106.096194400000002,end,237.316955810359218,"CDOT West Line (DAILY)(Bustang),","1.604,",1.604
-106.0783177,39.5698183,Temple Trail,39.569818300000001,-106.078317699999999,start,6461.799264217637756,"CDOT West Line (DAILY)(Bustang),","3.402,",3.402
-106.0523399,39.5661759,,39.566175899999998,-106.052339900000007,start,2697.421586521451445,"CDOT West Line (DAILY)(Bustang),","5.919,",5.919
-106.0701973,39.6074783,,39.607478299999997,-106.070197300000004,start,59.964479045089796,"CDOT West Line (DAILY)(Bustang),","3.76,",3.76
-106.0695081,39.6074332,,39.607433200000003,-106.069508099999993,end,59.964479045089796,"CDOT West Line (DAILY)(Bustang),","3.82,",3.82
-106.0830655,39.6006369,,39.600636899999998,-106.083065500000004,start,110.667721950131465,"CDOT West Line (DAILY)(Bustang),","2.139,",2.139
-106.0820522,39.6001963,,39.600196300000000,-106.082052200000007,end,110.667721950131465,"CDOT West Line (DAILY)(Bustang),","2.25,",2.25
-106.096408,39.5845893,,39.584589299999998,-106.096407999999997,start,1529.046278886183245,"CDOT West Line (DAILY)(Bustang),","0.521,",0.521
-106.0952278,39.5907921,,39.590792100000002,-106.095227800000004,end,1529.046278886183245,"CDOT West Line (DAILY)(Bustang),","0.51,",0.51
-106.097932,39.5885473,,39.588547300000002,-106.097932000000000,start,130.121019204044217,"CDOT West Line (DAILY)(Bustang),","0.069,",0.069
-106.0977092,39.5873889,,39.587388900000001,-106.097709199999997,end,130.121019204044217,"CDOT West Line (DAILY)(Bustang),","0.133,",0.133
-106.0973438,39.5885105,,39.588510499999998,-106.097343800000004,start,91.071812997781038,"CDOT West Line (DAILY)(Bustang),","0.106,",0.106
-106.0983913,39.5883842,,39.588384200000000,-106.098391300000003,end,91.071812997781038,"CDOT West Line (DAILY)(Bustang),","0.015,",0.015
-106.0978127,39.5900585,,39.590058499999998,-106.097812700000006,start,221.143561166629610,"CDOT West Line (DAILY)(Bustang),","0.252,",0.252
-106.0982235,39.588403,,39.588403000000000,-106.098223500000003,end,221.143561166629610,"CDOT West Line (DAILY)(Bustang),","0.084,",0.084
-106.0982583,39.5781187,,39.578118699999997,-106.098258299999998,start,935.966802059813745,"CDOT West Line (DAILY)(Bustang),","1.834,",1.834
-106.1047863,39.5825408,,39.582540799999997,-106.104786300000001,end,935.966802059813745,"CDOT West Line (DAILY)(Bustang),","1.413,",1.413
-106.0976077,39.5865113,,39.586511299999998,-106.097607699999998,start,86.129963613077010,"CDOT West Line (DAILY)(Bustang),","0.284,",0.284
-106.0981702,39.5859718,,39.585971800000003,-106.098170199999998,end,86.129963613077010,"CDOT West Line (DAILY)(Bustang),","0.365,",0.365
-106.0847622,39.5730504,,39.573050400000000,-106.084762200000000,start,57.031784525650529,"CDOT West Line (DAILY)(Bustang),","2.455,",2.455
-106.0844051,39.5726481,,39.572648100000002,-106.084405099999998,end,57.031784525650529,"CDOT West Line (DAILY)(Bustang),","2.512,",2.512
-106.0849445,39.5738431,,39.573843099999998,-106.084944500000006,start,389.216349503304855,"CDOT West Line (DAILY)(Bustang),","2.409,",2.409
-106.0821133,39.5721766,,39.572176599999999,-106.082113300000003,end,389.216349503304855,"CDOT West Line (DAILY)(Bustang),","2.742,",2.742
-106.0616309,39.5804292,Buzzsaw,39.580429199999998,-106.061630899999997,start,2013.245866520534491,"CDOT West Line (DAILY)(Bustang),","4.973,",4.973
-106.0613188,39.5947593,Buzzsaw,39.594759300000000,-106.061318799999995,end,2013.245866520534491,"CDOT West Line (DAILY)(Bustang),","6.318,",6.318
-106.0642381,39.5797202,,39.579720199999997,-106.064238099999997,start,274.094706013150926,"CDOT West Line (DAILY)(Bustang),","4.705,",4.705
-106.0632131,39.5777486,,39.577748600000000,-106.063213099999999,end,274.094706013150926,"CDOT West Line (DAILY)(Bustang),","4.687,",4.687
-106.39101,39.5267302,,39.526730200000003,-106.391009999999994,start,363.706134481430638,"Leadville(ECO Transit),","6.746,",6.746
-106.3928085,39.5287605,,39.528760499999997,-106.392808500000001,end,363.706134481430638,"Leadville(ECO Transit),Leadville(ECO Transit),Minturn(ECO Transit),","6.383,7.761,7.761,",6.383
-106.4445082,39.606386,Line Shack,39.606386000000001,-106.444508200000001,end,8353.196993172532530,"Highway 6(ECO Transit),Leadville(ECO Transit),Minturn(ECO Transit),Leadville(ECO Transit),Minturn(ECO Transit),Leadville(ECO Transit),Minturn(ECO Transit),","0.159,0.159,0.159,1.896,1.896,1.887,1.887,",0.159
-106.45707,39.5790634,Meadow Mountain,39.579063400000003,-106.457070000000002,start,3981.228272011077479,"Highway 6(ECO Transit),Leadville(ECO Transit),Minturn(ECO Transit),","7.031,7.031,7.031,",7.031
-106.454941,39.591523,Meadow Mountain,39.591523000000002,-106.454941000000005,end,3981.228272011077479,"Highway 6(ECO Transit),Leadville(ECO Transit),Minturn(ECO Transit),Highway 6(ECO Transit),Highway 6(ECO Transit),","4.01,4.01,4.01,6.162,6.982,",4.01
-106.0971948,39.586637,,39.586637000000003,-106.097194799999997,start,128.828183840231048,"CDOT West Line (DAILY)(Bustang),","0.234,",0.234
-106.0983767,39.5868709,,39.586870900000001,-106.098376700000003,end,128.828183840231048,"CDOT West Line (DAILY)(Bustang),","0.262,",0.262
-106.593048,39.652909,,39.652909000000001,-106.593047999999996,start,979.587779145306968,"Highway 6(ECO Transit),Highway 6(ECO Transit),Highway 6(ECO Transit),","1.798,1.8,1.774,",1.774
-106.587949,39.657682,,39.657682000000001,-106.587948999999995,end,979.587779145306968,"Highway 6(ECO Transit),Highway 6(ECO Transit),Highway 6(ECO Transit),Valley  Commuter(ECO Transit),Western Circulator/Valley Express(ECO Transit),","3.025,3.087,2.399,2.399,2.399,",2.399
-106.0788266,39.5767191,Hole 15,39.576719099999998,-106.078826599999999,start,320.552462269053251,"CDOT West Line (DAILY)(Bustang),","3.122,",3.122
-106.0787382,39.577081,Hole 15,39.577081000000000,-106.078738200000004,end,320.552462269053251,"CDOT West Line (DAILY)(Bustang),","3.122,",3.122
-106.0703443,39.5766659,Balfonz Blitz,39.576665900000002,-106.070344300000002,start,850.406877742821621,"CDOT West Line (DAILY)(Bustang),","3.836,",3.836
-106.0676105,39.5783185,Balfonz Blitz,39.578318500000002,-106.067610500000001,end,850.406877742821621,"CDOT West Line (DAILY)(Bustang),","4.4,",4.4
-106.0674813,39.5782839,Jody's Loop,39.578283900000002,-106.067481299999997,start,265.356959616210986,"CDOT West Line (DAILY)(Bustang),","4.412,",4.412
-106.067184,39.576021,Jody's Loop,39.576020999999997,-106.067183999999997,end,265.356959616210986,"CDOT West Line (DAILY)(Bustang),","4.166,",4.166
-106.0657964,39.5852663,,39.585266300000001,-106.065796399999996,start,46.311077751713498,"CDOT West Line (DAILY)(Bustang),","5.231,",5.231
-106.0652646,39.585198,,39.585197999999998,-106.065264600000006,end,46.311077751713498,"CDOT West Line (DAILY)(Bustang),","5.237,",5.237
-106.0692903,39.5868396,Lakeshore Perimeter,39.586839599999998,-106.069290300000006,start,176.097716742840845,"CDOT West Line (DAILY)(Bustang),","5.3,",5.3
-106.0708226,39.5859197,Lakeshore Perimeter,39.585919699999998,-106.070822600000000,end,176.097716742840845,"CDOT West Line (DAILY)(Bustang),","5.124,",5.124
-106.0710973,39.5863174,Perimeter Trail,39.586317399999999,-106.071097300000005,start,2567.882082572499257,"CDOT West Line (DAILY)(Bustang),","5.114,",5.114
-106.084937,39.575033,Perimeter Trail,39.575032999999998,-106.084936999999996,end,2567.882082572499257,"CDOT West Line (DAILY)(Bustang),","2.542,",2.542
-106.07135,39.5740412,,39.574041200000003,-106.071349999999995,start,89.534903944395396,"CDOT West Line (DAILY)(Bustang),","3.69,",3.69
-106.0710419,39.5747882,,39.574788200000000,-106.071041899999997,end,89.534903944395396,"CDOT West Line (DAILY)(Bustang),","3.78,",3.78
-106.071488,39.569154,,39.569153999999997,-106.071488000000002,start,4227.841581709614729,"CDOT West Line (DAILY)(Bustang),","4.235,",4.235
-106.076939,39.542119,,39.542119000000000,-106.076938999999996,end,4227.841581709614729,"CDOT West Line (DAILY)(Bustang),","7.253,",7.253
-106.5186361,39.6079831,,39.607983099999998,-106.518636099999995,start,101.956431452268916,"Vail-Beaver Creek Express(ECO Transit),Highway 6(ECO Transit),Highway 6(ECO Transit),","0.563,3.802,3.824,",0.563
-106.5187188,39.6071303,,39.607130300000001,-106.518718800000002,end,101.956431452268916,"Vail-Beaver Creek Express(ECO Transit),Highway 6(ECO Transit),Highway 6(ECO Transit),","0.539,3.888,3.91,",0.539
-106.0801275,39.5738702,,39.573870200000002,-106.080127500000003,start,243.979699484640832,"CDOT West Line (DAILY)(Bustang),","2.887,",2.887
-106.0798859,39.5746516,,39.574651600000003,-106.079885899999994,end,243.979699484640832,"CDOT West Line (DAILY)(Bustang),","2.973,",2.973
-106.0986887,39.5688604,,39.568860399999998,-106.098688699999997,start,1516.621988503756711,"CDOT West Line (DAILY)(Bustang),","3.007,",3.007
-106.0917579,39.5624164,,39.562416399999996,-106.091757900000005,end,1516.621988503756711,"CDOT West Line (DAILY)(Bustang),","4.269,",4.269
-106.0926156,39.5932909,,39.593290900000000,-106.092615600000002,start,104.463716176026210,"CDOT West Line (DAILY)(Bustang),","1.034,",1.034
-106.0935543,39.5927642,,39.592764199999998,-106.093554299999994,end,104.463716176026210,"CDOT West Line (DAILY)(Bustang),","1.138,",1.138
-106.0761387,39.5801599,Hole 10,39.580159899999998,-106.076138700000001,start,263.313148758811735,"CDOT West Line (DAILY)(Bustang),","5.484,",5.484
-106.0758625,39.579887,Hole 10,39.579886999999999,-106.075862499999999,end,263.313148758811735,"CDOT West Line (DAILY)(Bustang),","5.472,",5.472
-106.0961944,39.5790988,,39.579098799999997,-106.096194400000002,start,315.456902008865939,"CDOT West Line (DAILY)(Bustang),","1.604,",1.604
-106.0932355,39.5791355,,39.579135500000000,-106.093235500000006,end,315.456902008865939,"CDOT West Line (DAILY)(Bustang),","1.289,",1.289
-106.1045414,39.5725531,Mount Royal Trail,39.572553100000000,-106.104541400000002,start,2544.961904823142959,"CDOT West Line (DAILY)(Bustang),","2.869,",2.869
-106.1096769,39.5687965,Mount Royal Trail,39.568796499999998,-106.109676899999997,end,2544.961904823142959,"CDOT West Line (DAILY)(Bustang),","5.416,",5.416
-106.463991,39.613565,,39.613565000000001,-106.463990999999993,start,1132.432850293316051,"Highway 6(ECO Transit),Highway 6(ECO Transit),Highway 6(ECO Transit),","1.212,1.972,1.979,",1.212
-106.4633345,39.6181615,,39.618161499999999,-106.463334500000002,end,1132.432850293316051,"Highway 6(ECO Transit),Highway 6(ECO Transit),Highway 6(ECO Transit),","0.079,0.839,0.846,",0.079
-106.48933,39.60948,EagleVail Trail,39.609479999999998,-106.489329999999995,start,989.291764393712015,"Highway 6(ECO Transit),Highway 6(ECO Transit),Highway 6(ECO Transit),","3.723,3.822,4.253,",3.723
-106.483001,39.612663,EagleVail Trail,39.612662999999998,-106.483001000000002,end,989.291764393712015,"Highway 6(ECO Transit),Highway 6(ECO Transit),Highway 6(ECO Transit),","2.832,3.38,3.374,",2.832
-106.508503,39.583574,,39.583573999999999,-106.508503000000005,start,5067.202233663439984,"Vail-Beaver Creek Express(ECO Transit),","6.156,",6.156
-106.5087039,39.6025354,,39.602535400000001,-106.508703900000000,end,5067.202233663439984,"Highway 6(ECO Transit),Highway 6(ECO Transit),Highway 6(ECO Transit),","6.613,6.637,6.256,",6.256
-106.5151613,39.6063132,,39.606313200000002,-106.515161300000003,start,643.013287517164599,"Vail-Beaver Creek Express(ECO Transit),Highway 6(ECO Transit),Highway 6(ECO Transit),","0.837,4.902,5.105,",0.837
-106.510598,39.6060817,,39.606081699999997,-106.510598000000002,end,643.013287517164599,"Highway 6(ECO Transit),Highway 6(ECO Transit),Highway 6(ECO Transit),","5.655,6.012,6.036,",5.655
-106.0806692,39.577642,Hole 6,39.577641999999997,-106.080669200000003,start,256.110591889768159,"CDOT West Line (DAILY)(Bustang),","2.848,",2.848
-106.0803257,39.5779356,Hole 6,39.577935600000004,-106.080325700000003,end,256.110591889768159,"CDOT West Line (DAILY)(Bustang),","2.848,",2.848
-106.3746704,39.6373073,,39.637307300000003,-106.374670399999999,start,15.894452308899574,"Highway 6(ECO Transit),Leadville(ECO Transit),Valley  Commuter(ECO Transit),Western Circulator/Valley Express(ECO Transit),Minturn(ECO Transit),Vail-Beaver Creek Express(ECO Transit),CDOT West Line (DAILY)(Bustang),Highway 6(ECO Transit),Leadville(ECO Transit),Valley  Commuter(ECO Transit),Western Circulator/Valley Express(ECO Transit),Vail-Beaver Creek Express(ECO Transit),","1.711,1.711,1.711,1.711,1.711,1.711,1.711,1.819,1.819,1.819,1.819,1.819,",1.711
-106.374518,39.637226,,39.637225999999998,-106.374517999999995,end,15.894452308899574,"Highway 6(ECO Transit),Leadville(ECO Transit),Valley  Commuter(ECO Transit),Western Circulator/Valley Express(ECO Transit),Minturn(ECO Transit),Vail-Beaver Creek Express(ECO Transit),CDOT West Line (DAILY)(Bustang),Highway 6(ECO Transit),Leadville(ECO Transit),Valley  Commuter(ECO Transit),Western Circulator/Valley Express(ECO Transit),Vail-Beaver Creek Express(ECO Transit),","1.695,1.695,1.695,1.695,1.695,1.695,1.695,1.803,1.803,1.803,1.803,1.803,",1.695
-106.0576959,39.5676328,Swan Mountain Rec Path,39.567632799999998,-106.057695899999999,start,520.785952044861915,"CDOT West Line (DAILY)(Bustang),","5.581,",5.581
-106.0523801,39.5663892,Swan Mountain Rec Path,39.566389200000003,-106.052380099999993,end,520.785952044861915,"CDOT West Line (DAILY)(Bustang),","5.912,",5.912
-106.0776515,39.5790208,,39.579020800000002,-106.077651500000002,start,228.693773962097453,"CDOT West Line (DAILY)(Bustang),","3.372,",3.372
-106.07765,39.579426,,39.579425999999998,-106.077650000000006,end,228.693773962097453,"CDOT West Line (DAILY)(Bustang),","3.372,",3.372
-106.5637707,39.617897,,39.617896999999999,-106.563770700000006,start,1082.423399818097323,"Highway 6(ECO Transit),Highway 6(ECO Transit),Highway 6(ECO Transit),","3.899,4.55,4.374,",3.899
-106.5607,39.6257914,,39.625791399999997,-106.560699999999997,end,1082.423399818097323,"Highway 6(ECO Transit),Highway 6(ECO Transit),Highway 6(ECO Transit),","3.539,2.888,3.558,",2.888
-106.07198,39.555608,,39.555607999999999,-106.071979999999996,start,3154.053198961066755,"CDOT West Line (DAILY)(Bustang),","5.57,",5.57
-106.06957,39.569511,,39.569510999999999,-106.069569999999999,end,3154.053198961066755,"CDOT West Line (DAILY)(Bustang),","4.065,",4.065
-106.5865802,39.6585762,,39.658576199999999,-106.586580200000000,start,738.735253631541354,"Highway 6(ECO Transit),Valley  Commuter(ECO Transit),Western Circulator/Valley Express(ECO Transit),Highway 6(ECO Transit),Highway 6(ECO Transit),","2.559,2.559,2.559,3.247,3.185,",2.559
-106.5870938,39.6540105,,39.654010499999998,-106.587093800000005,end,738.735253631541354,"Highway 6(ECO Transit),Valley  Commuter(ECO Transit),Western Circulator/Valley Express(ECO Transit),Highway 6(ECO Transit),Highway 6(ECO Transit),","3.298,3.298,3.298,3.986,3.924,",3.298
-106.1103149,39.5744238,,39.574423799999998,-106.110314900000006,start,88.862925514698077,"CDOT West Line (DAILY)(Bustang),","2.722,",2.722
-106.1109955,39.5749468,,39.574946799999999,-106.110995500000001,end,88.862925514698077,"CDOT West Line (DAILY)(Bustang),","2.694,",2.694
-106.395153,39.530504,,39.530504000000001,-106.395152999999993,start,2303.856416897296185,"Leadville(ECO Transit),Minturn(ECO Transit),Minturn(ECO Transit),Leadville(ECO Transit),","7.438,7.438,7.871,6.06,",6.06
-106.0759534,39.5797611,Hole 12,39.579761099999999,-106.075953400000003,start,203.441293532582904,"CDOT West Line (DAILY)(Bustang),","5.472,",5.472
-106.0759164,39.5791214,Hole 12,39.579121399999998,-106.075916399999997,end,203.441293532582904,"CDOT West Line (DAILY)(Bustang),","5.472,",5.472
-106.097996,39.5691268,,39.569126799999999,-106.097995999999995,start,547.053122605823432,"CDOT West Line (DAILY)(Bustang),","2.938,",2.938
-106.1029086,39.5708311,,39.570831099999999,-106.102908600000006,end,547.053122605823432,"CDOT West Line (DAILY)(Bustang),","3.123,",3.123
-106.1019924,39.5648777,,39.564877699999997,-106.101992400000000,start,118.104238946818754,"CDOT West Line (DAILY)(Bustang),","3.779,",3.779
-106.1023258,39.5658924,,39.565892400000003,-106.102325800000003,end,118.104238946818754,"CDOT West Line (DAILY)(Bustang),","3.726,",3.726
-106.1005797,39.5694185,,39.569418499999998,-106.100579699999997,start,732.619658407703469,"CDOT West Line (DAILY)(Bustang),","3.016,",3.016
-106.1017667,39.5646739,,39.564673900000003,-106.101766699999999,end,732.619658407703469,"CDOT West Line (DAILY)(Bustang),","3.75,",3.75
-106.0906463,39.5630467,,39.563046700000001,-106.090646300000003,start,96.630450413912598,"CDOT West Line (DAILY)(Bustang),","4.146,",4.146
-106.0901297,39.5637225,,39.563722499999997,-106.090129700000006,end,96.630450413912598,"CDOT West Line (DAILY)(Bustang),","4.05,",4.05
-106.0976052,39.5689307,,39.568930700000003,-106.097605200000004,start,211.760431282389561,"CDOT West Line (DAILY)(Bustang),","2.898,",2.898
-106.0956149,39.5691331,,39.569133100000002,-106.095614900000001,end,211.760431282389561,"CDOT West Line (DAILY)(Bustang),","2.686,",2.686
-106.0715275,39.6051579,,39.605157900000002,-106.071527500000002,start,119.337451178568955,"CDOT West Line (DAILY)(Bustang),","3.303,",3.303
-106.0703164,39.6047374,,39.604737399999998,-106.070316399999996,end,119.337451178568955,"CDOT West Line (DAILY)(Bustang),","3.422,",3.422
-106.0774615,39.5771513,,39.577151299999997,-106.077461499999998,start,192.900129163873942,"CDOT West Line (DAILY)(Bustang),","3.366,",3.366
-106.0772976,39.5769507,,39.576950699999998,-106.077297599999994,end,192.900129163873942,"CDOT West Line (DAILY)(Bustang),","3.365,",3.365
-106.0788989,39.5750196,,39.575019599999997,-106.078898899999999,start,201.340318119459880,"CDOT West Line (DAILY)(Bustang),","3.054,",3.054
-106.0788776,39.5752658,,39.575265799999997,-106.078877599999998,end,201.340318119459880,"CDOT West Line (DAILY)(Bustang),","3.067,",3.067
-106.0746425,39.5799772,,39.579977200000002,-106.074642499999996,start,174.216164035047484,"CDOT West Line (DAILY)(Bustang),","5.472,",5.472
-106.0744571,39.5801797,,39.580179700000002,-106.074457100000004,end,174.216164035047484,"CDOT West Line (DAILY)(Bustang),","5.472,",5.472
-106.494911,39.623058,,39.623058000000000,-106.494911000000002,start,861.884201319322301,"Highway 6(ECO Transit),Highway 6(ECO Transit),Highway 6(ECO Transit),","0.087,0.097,1.458,",0.087
-106.5045641,39.624457,,39.624457000000000,-106.504564099999996,end,861.884201319322301,"Highway 6(ECO Transit),Highway 6(ECO Transit),Highway 6(ECO Transit),","0.613,0.375,0.399,",0.375
-106.5354097,39.6346107,,39.634610700000003,-106.535409700000002,start,68.011161520839352,"Highway 6(ECO Transit),Highway 6(ECO Transit),Highway 6(ECO Transit),","0.286,0.335,0.462,",0.286
-106.5347429,39.6347258,,39.634725799999998,-106.534742899999998,end,68.011161520839352,"Highway 6(ECO Transit),Highway 6(ECO Transit),Highway 6(ECO Transit),","0.218,0.343,0.394,",0.218
-106.563914,39.624792,,39.624791999999999,-106.563913999999997,start,2516.972809657331254,"Highway 6(ECO Transit),Highway 6(ECO Transit),Highway 6(ECO Transit),","2.578,3.229,3.053,",2.578
-106.551073,39.621456,,39.621456000000002,-106.551073000000002,end,2516.972809657331254,"Highway 6(ECO Transit),Highway 6(ECO Transit),Highway 6(ECO Transit),","5.748,5.767,5.748,",5.748
-106.5657377,39.6173193,,39.617319299999998,-106.565737700000000,start,609.133271719162849,"Highway 6(ECO Transit),Highway 6(ECO Transit),Highway 6(ECO Transit),","3.956,4.607,4.431,",3.956
-106.562662,39.619983,,39.619982999999998,-106.562662000000003,end,609.133271719162849,"Highway 6(ECO Transit),Highway 6(ECO Transit),Highway 6(ECO Transit),","4.327,3.676,4.346,",3.676
-106.077051,39.5784103,,39.578410300000002,-106.077050999999997,start,186.783472631641331,"CDOT West Line (DAILY)(Bustang),","3.372,",3.372
-106.0768258,39.5782097,,39.578209700000002,-106.076825799999995,end,186.783472631641331,"CDOT West Line (DAILY)(Bustang),","3.398,",3.398
-106.0816993,39.5375966,Peaks Trail,39.537596600000001,-106.081699299999997,start,2278.255373356236760,"CDOT West Line (DAILY)(Bustang),","7.041,",7.041
-106.0744485,39.5463232,Peaks Trail,39.546323200000003,-106.074448500000003,end,2278.255373356236760,"CDOT West Line (DAILY)(Bustang),","6.776,",6.776
-106.0788994,39.5773268,Hole 7,39.577326800000002,-106.078899399999997,start,168.937950974922842,"CDOT West Line (DAILY)(Bustang),","3.122,",3.122
-106.0788344,39.5776875,Hole 7,39.577687500000003,-106.078834400000005,end,168.937950974922842,"CDOT West Line (DAILY)(Bustang),","3.122,",3.122
-106.0790633,39.5742367,,39.574236700000000,-106.079063300000001,start,69.495006722481179,"CDOT West Line (DAILY)(Bustang),","2.986,",2.986
-106.0783393,39.5739612,,39.573961199999999,-106.078339299999996,end,69.495006722481179,"CDOT West Line (DAILY)(Bustang),","3.016,",3.016
-106.4746662,39.5890799,Whiskey creek,39.589079900000002,-106.474666200000001,start,6429.016611489394563,"Highway 6(ECO Transit),Highway 6(ECO Transit),Highway 6(ECO Transit),","6.786,6.793,7.46,",6.786
-106.475644,39.619536,Whiskey creek,39.619535999999997,-106.475644000000003,end,6429.016611489394563,"Highway 6(ECO Transit),Highway 6(ECO Transit),Highway 6(ECO Transit),","2.501,2.508,1.834,",1.834
-106.0808113,39.5753587,,39.575358700000002,-106.080811299999993,start,168.907385043403792,"CDOT West Line (DAILY)(Bustang),","2.792,",2.792
-106.0803875,39.5754414,,39.575441400000003,-106.080387500000001,end,168.907385043403792,"CDOT West Line (DAILY)(Bustang),","2.792,",2.792
-106.4153541,39.6369316,North Trail,39.636931599999997,-106.415354100000002,start,1112.005016847583647,"Highway 6(ECO Transit),Highway 6(ECO Transit),Leadville(ECO Transit),Valley  Commuter(ECO Transit),Highway 6(ECO Transit),Leadville(ECO Transit),Valley  Commuter(ECO Transit),","2.843,3.163,3.163,3.163,3.679,3.679,3.679,",2.843
-106.4212099,39.6313893,North Trail,39.631389300000002,-106.421209899999994,end,1112.005016847583647,"Highway 6(ECO Transit),Leadville(ECO Transit),Valley  Commuter(ECO Transit),Highway 6(ECO Transit),Highway 6(ECO Transit),Leadville(ECO Transit),Valley  Commuter(ECO Transit),","2.049,2.049,2.049,1.729,2.565,2.565,2.565,",1.729
-106.0780567,39.57822,,39.578220000000002,-106.078056700000005,start,150.971996033549402,"CDOT West Line (DAILY)(Bustang),","3.366,",3.366
-106.077695,39.5778911,,39.577891100000002,-106.077695000000006,end,150.971996033549402,"CDOT West Line (DAILY)(Bustang),","3.366,",3.366
-106.504526,39.59512,EagleVail Trail,39.595120000000001,-106.504525999999998,start,5892.172596862104911,"Highway 6(ECO Transit),Highway 6(ECO Transit),Highway 6(ECO Transit),","6.291,6.315,6.944,",6.291
-106.506306,39.622997,EagleVail Trail,39.622996999999998,-106.506305999999995,end,5892.172596862104911,"Highway 6(ECO Transit),Highway 6(ECO Transit),Highway 6(ECO Transit),","0.396,0.42,1.049,",0.396
-106.1163801,39.5758042,North Ten Mile Trail,39.575804200000000,-106.116380100000001,start,5428.273806318184143,"CDOT West Line (DAILY)(Bustang),","3.109,",3.109
-106.5491583,39.6406922,,39.640692199999997,-106.549158300000002,start,1407.924411635974366,"Highway 6(ECO Transit),Highway 6(ECO Transit),Highway 6(ECO Transit),","5.241,5.153,5.026,",5.026
-106.5392129,39.6398686,,39.639868600000000,-106.539212899999995,end,1407.924411635974366,"Highway 6(ECO Transit),Highway 6(ECO Transit),Highway 6(ECO Transit),","3.892,3.921,3.214,",3.214
-106.5587043,39.6464531,,39.646453100000002,-106.558704300000002,start,1442.414030249639382,"Highway 6(ECO Transit),Highway 6(ECO Transit),Highway 6(ECO Transit),","3.058,3.771,3.859,",3.058
-106.5490491,39.6410568,,39.641056800000001,-106.549049100000005,end,1442.414030249639382,"Highway 6(ECO Transit),Highway 6(ECO Transit),Highway 6(ECO Transit),","5.2,5.112,5.067,",5.067
-106.5488714,39.6403761,,39.640376099999997,-106.548871399999996,start,1840.941452023902912,"Highway 6(ECO Transit),Highway 6(ECO Transit),Highway 6(ECO Transit),","5.317,5.229,4.95,",4.95
-106.5422027,39.6525408,,39.652540799999997,-106.542202700000004,end,1840.941452023902912,"Highway 6(ECO Transit),Highway 6(ECO Transit),Highway 6(ECO Transit),","6.793,6.822,7.16,",6.793
-106.0928632,39.5792699,,39.579269900000000,-106.092863199999996,start,3429.111140436910773,"CDOT West Line (DAILY)(Bustang),","1.303,",1.303
-106.0759195,39.5707381,,39.570738100000000,-106.075919499999998,end,3429.111140436910773,"CDOT West Line (DAILY)(Bustang),","3.649,",3.649
-106.0518583,39.6264237,,39.626423699999997,-106.051858300000006,start,728.841490980045251,"CDOT West Line (DAILY)(Bustang),","6.607,",6.607
-106.0447544,39.6256748,,39.625674799999999,-106.044754400000002,end,728.841490980045251,"CDOT West Line (DAILY)(Bustang),","7.171,",7.171
-106.0786949,39.5788492,,39.578849200000001,-106.078694900000002,start,152.074447275175260,"CDOT West Line (DAILY)(Bustang),","3.366,",3.366
-106.0783221,39.5787024,,39.578702399999997,-106.078322099999994,end,152.074447275175260,"CDOT West Line (DAILY)(Bustang),","3.366,",3.366
-106.0654565,39.5902899,Switchback,39.590289900000002,-106.065456499999996,start,830.475605327354060,"CDOT West Line (DAILY)(Bustang),","5.88,",5.88
-106.0683555,39.5882012,Switchback,39.588201200000000,-106.068355499999996,end,830.475605327354060,"CDOT West Line (DAILY)(Bustang),","5.134,",5.134
-106.0914253,39.566969,Temple Trail,39.566969000000000,-106.091425299999997,start,1018.751397203202828,"CDOT West Line (DAILY)(Bustang),","2.817,",2.817
-106.0802485,39.5688208,Temple Trail,39.568820799999997,-106.080248499999996,end,1018.751397203202828,"CDOT West Line (DAILY)(Bustang),","3.438,",3.438
-106.0644676,39.5893037,,39.589303700000002,-106.064467600000000,start,48.014493989134351,"CDOT West Line (DAILY)(Bustang),","5.719,",5.719
-106.0649606,39.5893992,,39.589399200000003,-106.064960600000006,end,48.014493989134351,"CDOT West Line (DAILY)(Bustang),","5.755,",5.755
-106.0853239,39.5618382,Peaks Trail,39.561838199999997,-106.085323900000006,start,3765.581249076623408,"CDOT West Line (DAILY)(Bustang),","4.061,",4.061
-106.0759586,39.5394822,Peaks Trail,39.539482200000002,-106.075958600000007,end,3765.581249076623408,"CDOT West Line (DAILY)(Bustang),","7.529,",7.529
-106.0969399,39.579366,Unknown Path,39.579366000000000,-106.096939899999995,start,103.321850644110299,"CDOT West Line (DAILY)(Bustang),","1.683,",1.683
-106.0965923,39.5802396,Unknown Path,39.580239599999999,-106.096592299999998,end,103.321850644110299,"CDOT West Line (DAILY)(Bustang),","1.579,",1.579
-106.0975349,39.5873268,,39.587326800000000,-106.097534899999999,start,83.690358692187957,"CDOT West Line (DAILY)(Bustang),","0.15,",0.15
-106.0971948,39.586637,,39.586637000000003,-106.097194799999997,end,83.690358692187957,"CDOT West Line (DAILY)(Bustang),","0.234,",0.234
-106.0814416,39.5763883,Hole 5,39.576388299999998,-106.081441600000005,start,137.472710248219812,"CDOT West Line (DAILY)(Bustang),","2.848,",2.848
-106.0811841,39.576473,Hole 5,39.576473000000000,-106.081184100000002,end,137.472710248219812,"CDOT West Line (DAILY)(Bustang),","2.848,",2.848
-106.0637409,39.589312,Jody's Loop,39.589312000000000,-106.063740899999999,start,3414.649137993700151,"CDOT West Line (DAILY)(Bustang),","5.717,",5.717
-106.0637123,39.594611,Jody's Loop,39.594611000000000,-106.063712300000006,end,3414.649137993700151,"CDOT West Line (DAILY)(Bustang),","6.043,",6.043
-106.0932196,39.5622604,,39.562260400000000,-106.093219599999998,start,355.455042870857369,"CDOT West Line (DAILY)(Bustang),","4.133,",4.133
-106.0924053,39.5649716,,39.564971600000000,-106.092405299999996,end,355.455042870857369,"CDOT West Line (DAILY)(Bustang),","3.821,",3.821
-106.5502379,39.6432641,,39.643264100000003,-106.550237899999999,start,1749.241509928119740,"Highway 6(ECO Transit),Highway 6(ECO Transit),Highway 6(ECO Transit),","5.698,5.61,5.331,",5.331
-106.5477697,39.6466999,,39.646699900000002,-106.547769700000003,end,1749.241509928119740,"Highway 6(ECO Transit),Highway 6(ECO Transit),Highway 6(ECO Transit),","6.313,6.225,5.946,",5.946
-106.5436497,39.6407525,,39.640752499999998,-106.543649700000003,start,222.055068398554624,"Highway 6(ECO Transit),Highway 6(ECO Transit),Highway 6(ECO Transit),","4.503,4.532,5.815,",4.503
-106.5431127,39.6400839,,39.640083900000000,-106.543112699999995,end,222.055068398554624,"Highway 6(ECO Transit),Highway 6(ECO Transit),Highway 6(ECO Transit),","4.362,4.391,5.674,",4.362
-106.5430034,39.6398784,,39.639878400000001,-106.543003400000003,start,180.928510632439838,"Highway 6(ECO Transit),Highway 6(ECO Transit),Highway 6(ECO Transit),","4.334,4.363,5.646,",4.334
-106.5427301,39.6392693,,39.639269300000002,-106.542730100000000,end,180.928510632439838,"Highway 6(ECO Transit),Highway 6(ECO Transit),Highway 6(ECO Transit),","4.262,4.291,5.574,",4.262
-106.5473215,39.6470422,,39.647042200000001,-106.547321499999995,start,338.797452791315663,"Highway 6(ECO Transit),Highway 6(ECO Transit),Highway 6(ECO Transit),","6.367,6.279,6.0,",6.0
-106.5466753,39.6479533,,39.647953299999998,-106.546675300000004,end,338.797452791315663,"Highway 6(ECO Transit),Highway 6(ECO Transit),Highway 6(ECO Transit),","6.484,6.396,6.117,",6.117
-106.5466445,39.6480273,,39.648027300000003,-106.546644499999999,start,346.448818748400470,"Highway 6(ECO Transit),Highway 6(ECO Transit),Highway 6(ECO Transit),","6.492,6.404,6.125,",6.125
-106.5461756,39.6496203,,39.649620300000002,-106.546175599999998,end,346.448818748400470,"Highway 6(ECO Transit),Highway 6(ECO Transit),Highway 6(ECO Transit),","6.685,6.318,6.597,",6.318
-106.5458186,39.6389292,,39.638929200000000,-106.545818600000004,start,420.628682694901272,"Highway 6(ECO Transit),Highway 6(ECO Transit),Highway 6(ECO Transit),","4.625,5.642,4.654,",4.625
-106.5449833,39.6411134,,39.641113400000002,-106.544983299999998,end,420.628682694901272,"Highway 6(ECO Transit),Highway 6(ECO Transit),Highway 6(ECO Transit),","4.625,4.654,5.806,",4.625
-106.5456422,39.6389347,,39.638934700000000,-106.545642200000003,start,317.511563568090537,"Highway 6(ECO Transit),Highway 6(ECO Transit),Highway 6(ECO Transit),","4.609,5.658,4.638,",4.609
-106.5430611,39.6392457,,39.639245699999996,-106.543061100000003,end,317.511563568090537,"Highway 6(ECO Transit),Highway 6(ECO Transit),Highway 6(ECO Transit),","4.291,4.32,5.603,",4.291
-106.5483085,39.6570197,,39.657019699999999,-106.548308500000005,start,4469.169620180047787,"Highway 6(ECO Transit),Highway 6(ECO Transit),Highway 6(ECO Transit),","7.0,6.912,7.775,",6.912
-106.548,39.6399329,,39.639932899999998,-106.548000000000002,end,4469.169620180047787,"Highway 6(ECO Transit),Highway 6(ECO Transit),Highway 6(ECO Transit),","5.409,5.321,4.858,",4.858
-106.0636958,39.594724,Olympians Links,39.594723999999999,-106.063695800000005,start,877.855271017400696,"CDOT West Line (DAILY)(Bustang),","6.031,",6.031
-106.0683521,39.5883611,Olympians Links,39.588361100000000,-106.068352099999998,end,877.855271017400696,"CDOT West Line (DAILY)(Bustang),","5.152,",5.152
-106.0636793,39.5897627,,39.589762700000001,-106.063679300000004,start,261.752418797695498,"CDOT West Line (DAILY)(Bustang),","5.767,",5.767
-106.0608033,39.5905195,,39.590519499999999,-106.060803300000003,end,261.752418797695498,"CDOT West Line (DAILY)(Bustang),","6.028,",6.028
-106.062903,39.5846949,,39.584694900000002,-106.062903000000006,start,137.326294164393772,"CDOT West Line (DAILY)(Bustang),","5.339,",5.339
-106.0617305,39.5851579,,39.585157899999999,-106.061730499999996,end,137.326294164393772,"CDOT West Line (DAILY)(Bustang),","5.476,",5.476
-106.1098301,39.5646707,,39.564670700000001,-106.109830099999996,start,8044.202512843648947,"CDOT West Line (DAILY)(Bustang),","4.769,",4.769
-106.590448,39.6664986,,39.666498599999997,-106.590447999999995,start,1306.980647258627414,"Highway 6(ECO Transit),Highway 6(ECO Transit),Highway 6(ECO Transit),","4.519,4.521,4.93,",4.519
-106.5832228,39.6702577,,39.670257700000001,-106.583222800000001,end,1306.980647258627414,"Highway 6(ECO Transit),Valley  Commuter(ECO Transit),Western Circulator/Valley Express(ECO Transit),Highway 6(ECO Transit),Highway 6(ECO Transit),","5.121,5.121,5.121,6.469,6.501,",5.121
-106.074691,39.5728737,,39.572873700000002,-106.074691000000001,start,119.107142271834846,"CDOT West Line (DAILY)(Bustang),","3.499,",3.499
-106.0735921,39.5725974,,39.572597399999999,-106.073592099999999,end,119.107142271834846,"CDOT West Line (DAILY)(Bustang),","3.397,",3.397
-106.0801897,39.603172,,39.603172000000001,-106.080189700000005,start,780.067427459879127,"CDOT West Line (DAILY)(Bustang),","2.478,",2.478
-106.0803241,39.6075082,,39.607508199999998,-106.080324099999999,end,780.067427459879127,"CDOT West Line (DAILY)(Bustang),","3.258,",3.258
-106.0753986,39.6074655,,39.607465500000004,-106.075398600000000,start,203.219281046185642,"CDOT West Line (DAILY)(Bustang),","3.221,",3.221
-106.0776453,39.6071185,,39.607118499999999,-106.077645300000000,end,203.219281046185642,"CDOT West Line (DAILY)(Bustang),","3.018,",3.018
-106.5187028,39.6074754,,39.607475399999998,-106.518702800000000,start,39.140374828837579,"Vail-Beaver Creek Express(ECO Transit),Highway 6(ECO Transit),Highway 6(ECO Transit),","0.578,3.865,3.887,",0.578
-106.5183216,39.6076657,,39.607665699999998,-106.518321599999993,end,39.140374828837579,"Vail-Beaver Creek Express(ECO Transit),Highway 6(ECO Transit),Highway 6(ECO Transit),","0.617,3.853,3.875,",0.617
-106.5891956,39.6555359,,39.655535899999997,-106.589195599999996,start,231.211248526650451,"Highway 6(ECO Transit),Highway 6(ECO Transit),Highway 6(ECO Transit),","2.736,2.798,2.325,",2.325
-106.5885301,39.6571868,,39.657186799999998,-106.588530100000000,end,231.211248526650451,"Highway 6(ECO Transit),Highway 6(ECO Transit),Highway 6(ECO Transit),Valley  Commuter(ECO Transit),Western Circulator/Valley Express(ECO Transit),","2.944,3.006,2.318,2.318,2.318,",2.318
-106.077355,39.541465,,39.541465000000002,-106.077354999999997,start,2712.184684141015623,"CDOT West Line (DAILY)(Bustang),","7.172,",7.172
-106.077078,39.558218,,39.558217999999997,-106.077078000000000,end,2712.184684141015623,"CDOT West Line (DAILY)(Bustang),","4.961,",4.961
-106.5891413,39.6562686,,39.656268599999997,-106.589141299999994,start,67.662530372808149,"Highway 6(ECO Transit),Highway 6(ECO Transit),Highway 6(ECO Transit),","2.82,2.882,2.409,",2.409
-106.5883852,39.6564413,,39.656441299999997,-106.588385200000005,end,67.662530372808149,"Highway 6(ECO Transit),Highway 6(ECO Transit),Highway 6(ECO Transit),Valley  Commuter(ECO Transit),Western Circulator/Valley Express(ECO Transit),","2.872,2.934,2.246,2.246,2.246,",2.246
-106.5884859,39.6572488,,39.657248799999998,-106.588485899999995,start,515.290656725473696,"Highway 6(ECO Transit),Highway 6(ECO Transit),Highway 6(ECO Transit),Valley  Commuter(ECO Transit),Western Circulator/Valley Express(ECO Transit),","2.952,3.014,2.326,2.326,2.326,",2.326
-106.590716,39.653201,,39.653201000000003,-106.590716000000000,end,515.290656725473696,"Highway 6(ECO Transit),Highway 6(ECO Transit),Highway 6(ECO Transit),","2.026,2.028,2.437,",2.026
-106.0652914,39.5767112,,39.576711199999998,-106.065291400000007,start,128.743795431810867,"CDOT West Line (DAILY)(Bustang),","4.454,",4.454
-106.0640067,39.5767018,,39.576701800000002,-106.064006699999993,end,128.743795431810867,"CDOT West Line (DAILY)(Bustang),","4.542,",4.542
-106.0655633,39.5788306,,39.578830600000003,-106.065563299999994,start,34.509070390794548,"CDOT West Line (DAILY)(Bustang),","4.526,",4.526
-106.0652286,39.5786854,,39.578685399999998,-106.065228599999998,end,34.509070390794548,"CDOT West Line (DAILY)(Bustang),","4.561,",4.561
-106.0628926,39.5801789,Buzz saw,39.580178900000000,-106.062892599999998,start,1416.263477638075528,"CDOT West Line (DAILY)(Bustang),","4.835,",4.835
-106.071966,39.5739078,Buzz saw,39.573907800000001,-106.071966000000003,end,1416.263477638075528,"CDOT West Line (DAILY)(Bustang),","3.633,",3.633
-106.0721754,39.5734676,,39.573467600000001,-106.072175400000006,start,118.971725262013223,"CDOT West Line (DAILY)(Bustang),","3.596,",3.596
-106.073439,39.5732114,,39.573211399999998,-106.073438999999993,end,118.971725262013223,"CDOT West Line (DAILY)(Bustang),","3.477,",3.477
-106.0912984,39.5712669,,39.571266899999998,-106.091298399999999,start,567.447937152507734,"CDOT West Line (DAILY)(Bustang),","2.226,",2.226
-106.0937686,39.5753576,,39.575357599999997,-106.093768600000004,end,567.447937152507734,"CDOT West Line (DAILY)(Bustang),","1.769,",1.769
-106.0741358,39.5714287,,39.571428699999998,-106.074135799999993,start,88.009412211615142,"CDOT West Line (DAILY)(Bustang),","3.553,",3.553
-106.0735377,39.5708265,,39.570826500000003,-106.073537700000003,end,88.009412211615142,"CDOT West Line (DAILY)(Bustang),","3.641,",3.641
-106.0879154,39.5362936,,39.536293600000000,-106.087915400000000,start,510.408509131225628,"CDOT West Line (DAILY)(Bustang),","7.391,",7.391
-106.08516,39.532635,,39.532634999999999,-106.085160000000002,end,510.408509131225628,"CDOT West Line (DAILY)(Bustang),","7.902,",7.902
-106.085064,39.545484,,39.545484000000002,-106.085064000000003,start,41.417190960734608,"CDOT West Line (DAILY)(Bustang),","5.996,",5.996
-106.0846177,39.5453434,,39.545343400000000,-106.084617699999995,end,41.417190960734608,"CDOT West Line (DAILY)(Bustang),","6.038,",6.038
-106.0727323,39.5703403,,39.570340299999998,-106.072732299999998,start,325.045540366179239,"CDOT West Line (DAILY)(Bustang),","3.77,",3.77
-106.0752007,39.5681729,,39.568172900000000,-106.075200699999996,end,325.045540366179239,"CDOT West Line (DAILY)(Bustang),","4.095,",4.095
-106.0743121,39.5691172,,39.569117200000001,-106.074312100000000,start,716.379077641550452,"CDOT West Line (DAILY)(Bustang),","3.963,",3.963
-106.081234,39.567094,,39.567093999999997,-106.081233999999995,end,716.379077641550452,"CDOT West Line (DAILY)(Bustang),","3.337,",3.337
-106.080169,39.567517,,39.567517000000002,-106.080168999999998,start,129.025155839470443,"CDOT West Line (DAILY)(Bustang),","3.441,",3.441
-106.0790973,39.5682048,,39.568204799999997,-106.079097300000001,end,129.025155839470443,"CDOT West Line (DAILY)(Bustang),","3.57,",3.57
-106.081037,39.567143,,39.567143000000002,-106.081036999999995,start,335.015577247116823,"CDOT West Line (DAILY)(Bustang),","3.355,",3.355
-106.082631,39.564741,,39.564740999999998,-106.082631000000006,end,335.015577247116823,"CDOT West Line (DAILY)(Bustang),","3.69,",3.69
-106.0683259,39.5478321,,39.547832100000001,-106.068325900000005,start,1674.485404174787618,"CDOT West Line (DAILY)(Bustang),","7.018,",7.018
-106.072591,39.554495,,39.554495000000003,-106.072591000000003,end,1674.485404174787618,"CDOT West Line (DAILY)(Bustang),","5.712,",5.712
-106.076454,39.549335,,39.549334999999999,-106.076453999999998,start,1756.518840173047238,"CDOT West Line (DAILY)(Bustang),","6.173,",6.173
-106.083245,39.559115,,39.559114999999998,-106.083245000000005,end,1756.518840173047238,"CDOT West Line (DAILY)(Bustang),","4.415,",4.415
-106.074754,39.568105,,39.568105000000003,-106.074753999999999,start,1652.595785455355326,"CDOT West Line (DAILY)(Bustang),","4.135,",4.135
-106.0753452,39.55748,,39.557479999999998,-106.075345200000001,end,1652.595785455355326,"CDOT West Line (DAILY)(Bustang),","5.2,",5.2
-106.072422,39.554002,,39.554001999999997,-106.072422000000003,start,1495.328259045471441,"CDOT West Line (DAILY)(Bustang),","5.772,",5.772
-106.057817,39.553385,,39.553384999999999,-106.057817000000000,end,1495.328259045471441,"CDOT West Line (DAILY)(Bustang),","7.266,",7.266
-106.0765208,39.5428653,,39.542865300000003,-106.076520799999997,start,214.281427514183434,"CDOT West Line (DAILY)(Bustang),","7.295,",7.295
-106.077738,39.5415721,,39.541572100000003,-106.077737999999997,end,214.281427514183434,"CDOT West Line (DAILY)(Bustang),","7.137,",7.137
-106.1032226,39.5651891,,39.565189099999998,-106.103222599999995,start,1697.413046761244914,"CDOT West Line (DAILY)(Bustang),","3.836,",3.836
-106.0853239,39.5618382,,39.561838199999997,-106.085323900000006,end,1697.413046761244914,"CDOT West Line (DAILY)(Bustang),","4.061,",4.061
-106.0630244,39.5776907,Lakeshore Perimeter,39.577690699999998,-106.063024400000003,start,2652.986265561171422,"CDOT West Line (DAILY)(Bustang),","4.703,",4.703
-106.061667,39.5953948,Lakeshore Perimeter,39.595394800000001,-106.061667000000000,end,2652.986265561171422,"CDOT West Line (DAILY)(Bustang),","6.233,",6.233
-106.0773873,39.5767937,Hole 18,39.576793700000003,-106.077387299999998,start,81.352843355379747,"CDOT West Line (DAILY)(Bustang),","3.362,",3.362
-106.0778261,39.5761444,Hole 18,39.576144399999997,-106.077826099999996,end,81.352843355379747,"CDOT West Line (DAILY)(Bustang),","3.128,",3.128
-106.0804867,39.5755882,Hole 4,39.575588199999999,-106.080486699999994,start,65.536542009272296,"CDOT West Line (DAILY)(Bustang),","2.792,",2.792
-106.0812475,39.5756305,Hole 4,39.575630500000003,-106.081247500000003,end,65.536542009272296,"CDOT West Line (DAILY)(Bustang),","2.778,",2.778
-106.0811414,39.5767502,,39.576750199999999,-106.081141400000007,start,73.721367979215302,"CDOT West Line (DAILY)(Bustang),","2.848,",2.848
-106.0804464,39.5771396,,39.577139600000002,-106.080446400000000,end,73.721367979215302,"CDOT West Line (DAILY)(Bustang),","2.848,",2.848
-106.0797141,39.5778528,,39.577852800000002,-106.079714100000004,start,62.744629912918043,"CDOT West Line (DAILY)(Bustang),","2.848,",2.848
-106.0789902,39.5779274,,39.577927400000000,-106.078990200000007,end,62.744629912918043,"CDOT West Line (DAILY)(Bustang),","3.122,",3.122
-106.0784429,39.5764876,Hole 16,39.576487600000000,-106.078442899999999,start,57.284508093043968,"CDOT West Line (DAILY)(Bustang),","3.122,",3.122
-106.0779333,39.5768203,Hole 16,39.576820300000001,-106.077933299999998,end,57.284508093043968,"CDOT West Line (DAILY)(Bustang),","3.28,",3.28
-106.049117,39.6318562,,39.631856200000001,-106.049116999999995,start,31.766818360679824,"CDOT West Line (DAILY)(Bustang),","7.137,",7.137
-106.0487823,39.6319782,,39.631978199999999,-106.048782299999999,end,31.766818360679824,"CDOT West Line (DAILY)(Bustang),","7.169,",7.169
-106.088807,39.5628653,,39.562865299999999,-106.088807000000003,start,53.287147904216397,"CDOT West Line (DAILY)(Bustang),","4.236,",4.236
-106.0885011,39.5624682,,39.562468199999998,-106.088501100000002,end,53.287147904216397,"CDOT West Line (DAILY)(Bustang),","4.289,",4.289
-106.1052204,39.6169189,,39.616918900000002,-106.105220399999993,end,2465.882878595058628,"CDOT West Line (DAILY)(Bustang),","7.478,",7.478
-106.1047044,39.6153588,,39.615358800000003,-106.104704400000003,start,8.384433096177569,"CDOT West Line (DAILY)(Bustang),","7.672,",7.672
-106.1047983,39.6153381,,39.615338100000002,-106.104798299999999,end,8.384433096177569,"CDOT West Line (DAILY)(Bustang),","7.68,",7.68
-106.0592495,39.5961411,Lakeshore Perimeter,39.596141099999997,-106.059249500000007,start,1613.135057685328547,"CDOT West Line (DAILY)(Bustang),","6.462,",6.462
-106.0688195,39.5884952,Lakeshore Perimeter,39.588495199999997,-106.068819500000004,end,1613.135057685328547,"CDOT West Line (DAILY)(Bustang),","5.181,",5.181
-106.0980948,39.5857876,,39.585787600000003,-106.098094799999998,start,285.334362783072265,"CDOT West Line (DAILY)(Bustang),","0.386,",0.386
-106.0973445,39.5873124,,39.587312400000002,-106.097344500000005,end,285.334362783072265,"CDOT West Line (DAILY)(Bustang),","0.166,",0.166
-106.321072,39.650818,Booth Lake Trail,39.650818000000001,-106.321072000000001,start,3175.113413860873152,"CDOT West Line (DAILY)(Bustang),Highway 6(ECO Transit),Leadville(ECO Transit),Valley  Commuter(ECO Transit),Western Circulator/Valley Express(ECO Transit),Minturn(ECO Transit),Vail-Beaver Creek Express(ECO Transit),Highway 6(ECO Transit),Leadville(ECO Transit),Valley  Commuter(ECO Transit),Western Circulator/Valley Express(ECO Transit),Vail-Beaver Creek Express(ECO Transit),","4.992,4.992,4.992,4.992,4.992,4.992,4.992,5.566,5.566,5.566,5.566,5.566,",4.992
-106.0973688,39.5786859,Bike Path,39.578685900000004,-106.097368799999998,start,130.156125848856163,"CDOT West Line (DAILY)(Bustang),","1.733,",1.733
-106.0986831,39.5788448,Bike Path,39.578844799999999,-106.098683100000002,end,130.156125848856163,"CDOT West Line (DAILY)(Bustang),","1.863,",1.863
